start=new Date('2022-05-18T00:00:00.000Z').valueOf();
sats=[{"TIME_SYSTEM":"UTC","INCLINATION":"53.0551","NORAD_CAT_ID":"48298","RCS_SIZE":"LARGE","PERIOD":"95.593","LAUNCH_DATE":"2021-04-29","COUNTRY_CODE":"US","ECCENTRICITY":"0.00016450","MEAN_ELEMENT_THEORY":"SGP4","OBJECT_ID":"2021-036Y","MEAN_MOTION_DOT":"0.00000307","MEAN_MOTION_DDOT":"0.0000000000000","BSTAR":"0.00003950800000","ELEMENT_SET_NO":"999","REV_AT_EPOCH":"5847","TLE_LINE2":"2 48298  53.0551 211.6185 0001645  57.6647 302.4501 15.06389261 58477","OBJECT_TYPE":"PAYLOAD","ARG_OF_PERICENTER":"57.6647","SITE":"AFETR","EPHEMERIS_TYPE":"0","REF_FRAME":"TEME","TLE_LINE1":"1 48298U 21036Y   22137.45241829  .00000307  00000-0  39508-4 0  9992","EPOCH":"2022-05-17T10:51:28.940256","DECAY_DATE":null,"OBJECT_NAME":"STARLINK-2559","GP_ID":"203782850","CLASSIFICATION_TYPE":"U","FILE":"3450137","APOAPSIS":"548.386","CENTER_NAME":"EARTH","MEAN_ANOMALY":"302.4501","PERIAPSIS":"546.107","MEAN_MOTION":"15.06389261","RA_OF_ASC_NODE":"211.6185","SEMIMAJOR_AXIS":"6925.381"},{"PERIAPSIS":"545.999","MEAN_ANOMALY":"302.5516","MEAN_MOTION":"15.06386742","RA_OF_ASC_NODE":"211.6337","SEMIMAJOR_AXIS":"6925.389","GP_ID":"203783589","CLASSIFICATION_TYPE":"U","OBJECT_NAME":"STARLINK-2557","FILE":"3450137","CENTER_NAME":"EARTH","APOAPSIS":"548.510","TLE_LINE1":"1 48299U 21036Z   22137.44873943 -.00001507  00000-0 -82300-4 0  9993","EPOCH":"2022-05-17T10:46:11.086752","DECAY_DATE":null,"REV_AT_EPOCH":"5847","TLE_LINE2":"2 48299  53.0550 211.6337 0001813  57.5648 302.5516 15.06386742 58471","OBJECT_TYPE":"PAYLOAD","ARG_OF_PERICENTER":"57.5648","SITE":"AFETR","EPHEMERIS_TYPE":"0","REF_FRAME":"TEME","OBJECT_ID":"2021-036Z","MEAN_ELEMENT_THEORY":"SGP4","MEAN_MOTION_DOT":"-0.00001507","MEAN_MOTION_DDOT":"0.0000000000000","BSTAR":"-0.00008230000000","ELEMENT_SET_NO":"999","RCS_SIZE":"MEDIUM","PERIOD":"95.593","NORAD_CAT_ID":"48299","LAUNCH_DATE":"2021-04-29","COUNTRY_CODE":"US","ECCENTRICITY":"0.00018130","TIME_SYSTEM":"UTC","INCLINATION":"53.0550"},{"MEAN_MOTION_DOT":"-0.00002159","ELEMENT_SET_NO":"999","MEAN_MOTION_DDOT":"0.0000000000000","BSTAR":"-0.00012616000000","MEAN_ELEMENT_THEORY":"SGP4","OBJECT_ID":"2021-036AA","LAUNCH_DATE":"2021-04-29","PERIOD":"95.593","RCS_SIZE":"LARGE","NORAD_CAT_ID":"48300","ECCENTRICITY":"0.00018190","COUNTRY_CODE":"US","TIME_SYSTEM":"UTC","INCLINATION":"53.0530","SEMIMAJOR_AXIS":"6925.395","RA_OF_ASC_NODE":"221.3796","MEAN_MOTION":"15.06384894","PERIAPSIS":"546.000","MEAN_ANOMALY":"301.5246","CENTER_NAME":"EARTH","APOAPSIS":"548.520","FILE":"3450137","OBJECT_NAME":"STARLINK-2538","GP_ID":"203782340","CLASSIFICATION_TYPE":"U","DECAY_DATE":null,"EPOCH":"2022-05-17T12:09:47.183040","TLE_LINE1":"1 48300U 21036AA  22137.50679610 -.00002159  00000-0 -12616-3 0  9994","ARG_OF_PERICENTER":"58.5920","SITE":"AFETR","REF_FRAME":"TEME","EPHEMERIS_TYPE":"0","TLE_LINE2":"2 48300  53.0530 221.3796 0001819  58.5920 301.5246 15.06384894 58340","REV_AT_EPOCH":"5834","OBJECT_TYPE":"PAYLOAD"},{"APOAPSIS":"548.233","CENTER_NAME":"EARTH","FILE":"3450137","GP_ID":"203782099","OBJECT_NAME":"STARLINK-2537","CLASSIFICATION_TYPE":"U","SEMIMAJOR_AXIS":"6925.353","RA_OF_ASC_NODE":"221.3933","MEAN_MOTION":"15.06398511","MEAN_ANOMALY":"297.1978","PERIAPSIS":"546.204","SITE":"AFETR","ARG_OF_PERICENTER":"62.9160","REF_FRAME":"TEME","EPHEMERIS_TYPE":"0","TLE_LINE2":"2 48301  53.0545 221.3933 0001465  62.9160 297.1978 15.06398511 58334","REV_AT_EPOCH":"5833","OBJECT_TYPE":"PAYLOAD","DECAY_DATE":null,"EPOCH":"2022-05-17T12:04:27.103008","TLE_LINE1":"1 48301U 21036AB  22137.50309147 -.00001744  00000-0 -98233-4 0  9999","LAUNCH_DATE":"2021-04-29","PERIOD":"95.592","RCS_SIZE":"LARGE","NORAD_CAT_ID":"48301","ECCENTRICITY":"0.00014650","COUNTRY_CODE":"US","MEAN_MOTION_DOT":"-0.00001744","ELEMENT_SET_NO":"999","MEAN_MOTION_DDOT":"0.0000000000000","BSTAR":"-0.00009823300000","OBJECT_ID":"2021-036AB","MEAN_ELEMENT_THEORY":"SGP4","INCLINATION":"53.0545","TIME_SYSTEM":"UTC"},{"GP_ID":"203787839","CLASSIFICATION_TYPE":"U","OBJECT_NAME":"STARLINK-2556","FILE":"3450247","CENTER_NAME":"EARTH","APOAPSIS":"548.391","PERIAPSIS":"546.099","MEAN_ANOMALY":"307.0921","MEAN_MOTION":"15.06389803","RA_OF_ASC_NODE":"221.4131","SEMIMAJOR_AXIS":"6925.380","REV_AT_EPOCH":"5891","TLE_LINE2":"2 48302  53.0525 221.4131 0001655  53.0219 307.0921 15.06389803 58918","OBJECT_TYPE":"PAYLOAD","ARG_OF_PERICENTER":"53.0219","SITE":"AFETR","EPHEMERIS_TYPE":"0","REF_FRAME":"TEME","TLE_LINE1":"1 48302U 21036AC  22137.49941564  .00000823  00000-0  74162-4 0  9993","EPOCH":"2022-05-17T11:59:09.511296","DECAY_DATE":null,"PERIOD":"95.593","RCS_SIZE":"LARGE","NORAD_CAT_ID":"48302","LAUNCH_DATE":"2021-04-29","COUNTRY_CODE":"US","ECCENTRICITY":"0.00016550","MEAN_ELEMENT_THEORY":"SGP4","OBJECT_ID":"2021-036AC","MEAN_MOTION_DOT":"0.00000823","BSTAR":"0.00007416200000","MEAN_MOTION_DDOT":"0.0000000000000","ELEMENT_SET_NO":"999","INCLINATION":"53.0525","TIME_SYSTEM":"UTC"},{"DECAY_DATE":null,"EPOCH":"2022-05-17T15:04:55.940736","TLE_LINE1":"1 48303U 21036AD  22137.62842524 -.00000413  00000-0 -88211-5 0  9993","ARG_OF_PERICENTER":"64.8244","SITE":"AFETR","REF_FRAME":"TEME","EPHEMERIS_TYPE":"0","TLE_LINE2":"2 48303  53.0543 220.8322 0001650  64.8244 295.2915 15.06384194 58949","REV_AT_EPOCH":"5894","OBJECT_TYPE":"PAYLOAD","SEMIMAJOR_AXIS":"6925.397","RA_OF_ASC_NODE":"220.8322","MEAN_MOTION":"15.06384194","MEAN_ANOMALY":"295.2915","PERIAPSIS":"546.119","APOAPSIS":"548.405","CENTER_NAME":"EARTH","FILE":"3450269","GP_ID":"203788664","CLASSIFICATION_TYPE":"U","OBJECT_NAME":"STARLINK-2530","INCLINATION":"53.0543","TIME_SYSTEM":"UTC","MEAN_MOTION_DOT":"-0.00000413","ELEMENT_SET_NO":"999","BSTAR":"-0.00000882110000","MEAN_MOTION_DDOT":"0.0000000000000","OBJECT_ID":"2021-036AD","MEAN_ELEMENT_THEORY":"SGP4","LAUNCH_DATE":"2021-04-29","PERIOD":"95.593","RCS_SIZE":"LARGE","NORAD_CAT_ID":"48303","ECCENTRICITY":"0.00016500","COUNTRY_CODE":"US"},{"LAUNCH_DATE":"2021-04-29","PERIOD":"95.594","RCS_SIZE":"LARGE","NORAD_CAT_ID":"48304","ECCENTRICITY":"0.00015960","COUNTRY_CODE":"US","OBJECT_ID":"2021-036AE","MEAN_ELEMENT_THEORY":"SGP4","MEAN_MOTION_DOT":"0.00000882","ELEMENT_SET_NO":"999","MEAN_MOTION_DDOT":"0.0000000000000","BSTAR":"0.00007816600000","TIME_SYSTEM":"UTC","INCLINATION":"53.0545","FILE":"3450137","GP_ID":"203781851","OBJECT_NAME":"STARLINK-2524","CLASSIFICATION_TYPE":"U","APOAPSIS":"548.402","CENTER_NAME":"EARTH","MEAN_MOTION":"15.06372736","MEAN_ANOMALY":"294.2172","PERIAPSIS":"546.192","SEMIMAJOR_AXIS":"6925.432","RA_OF_ASC_NODE":"221.4437","TLE_LINE2":"2 48304  53.0545 221.4437 0001596  65.8983 294.2172 15.06372736 58332","REV_AT_EPOCH":"5833","OBJECT_TYPE":"PAYLOAD","ARG_OF_PERICENTER":"65.8983","SITE":"AFETR","REF_FRAME":"TEME","EPHEMERIS_TYPE":"0","TLE_LINE1":"1 48304U 21036AE  22137.49205259  .00000882  00000-0  78166-4 0  9992","DECAY_DATE":null,"EPOCH":"2022-05-17T11:48:33.343776"},{"REV_AT_EPOCH":"5892","TLE_LINE2":"2 48305  53.0557 221.4503 0001628  64.4400 295.6757 15.06380841 58920","OBJECT_TYPE":"PAYLOAD","SITE":"AFETR","ARG_OF_PERICENTER":"64.4400","EPHEMERIS_TYPE":"0","REF_FRAME":"TEME","TLE_LINE1":"1 48305U 21036AF  22137.48742066 -.00001006  00000-0 -48688-4 0  9991","EPOCH":"2022-05-17T11:41:53.145024","DECAY_DATE":null,"GP_ID":"203788437","OBJECT_NAME":"STARLINK-2519","CLASSIFICATION_TYPE":"U","FILE":"3450252","APOAPSIS":"548.400","CENTER_NAME":"EARTH","PERIAPSIS":"546.145","MEAN_ANOMALY":"295.6757","MEAN_MOTION":"15.06380841","SEMIMAJOR_AXIS":"6925.407","RA_OF_ASC_NODE":"221.4503","TIME_SYSTEM":"UTC","INCLINATION":"53.0557","PERIOD":"95.593","RCS_SIZE":"LARGE","NORAD_CAT_ID":"48305","LAUNCH_DATE":"2021-04-29","COUNTRY_CODE":"US","ECCENTRICITY":"0.00016280","OBJECT_ID":"2021-036AF","MEAN_ELEMENT_THEORY":"SGP4","MEAN_MOTION_DOT":"-0.00001006","BSTAR":"-0.00004868800000","MEAN_MOTION_DDOT":"0.0000000000000","ELEMENT_SET_NO":"999"},{"RA_OF_ASC_NODE":"221.4742","SEMIMAJOR_AXIS":"6925.370","MEAN_MOTION":"15.06393025","PERIAPSIS":"546.058","MEAN_ANOMALY":"296.7543","APOAPSIS":"548.412","CENTER_NAME":"EARTH","FILE":"3450137","GP_ID":"203782851","CLASSIFICATION_TYPE":"U","OBJECT_NAME":"STARLINK-2523","DECAY_DATE":null,"EPOCH":"2022-05-17T11:37:55.849152","TLE_LINE1":"1 48306U 21036AG  22137.48467418  .00001229  00000-0  10139-3 0  9991","REF_FRAME":"TEME","EPHEMERIS_TYPE":"0","ARG_OF_PERICENTER":"63.3619","SITE":"AFETR","OBJECT_TYPE":"PAYLOAD","TLE_LINE2":"2 48306  53.0543 221.4742 0001699  63.3619 296.7543 15.06393025 58337","REV_AT_EPOCH":"5833","ELEMENT_SET_NO":"999","BSTAR":"0.00010139000000","MEAN_MOTION_DDOT":"0.0000000000000","MEAN_MOTION_DOT":"0.00001229","OBJECT_ID":"2021-036AG","MEAN_ELEMENT_THEORY":"SGP4","ECCENTRICITY":"0.00016990","COUNTRY_CODE":"US","LAUNCH_DATE":"2021-04-29","RCS_SIZE":"LARGE","NORAD_CAT_ID":"48306","PERIOD":"95.593","TIME_SYSTEM":"UTC","INCLINATION":"53.0543"},{"ECCENTRICITY":"0.00015890","COUNTRY_CODE":"US","LAUNCH_DATE":"2021-04-29","RCS_SIZE":"LARGE","PERIOD":"95.593","NORAD_CAT_ID":"48307","OBJECT_ID":"2021-036AH","MEAN_ELEMENT_THEORY":"SGP4","ELEMENT_SET_NO":"999","BSTAR":"0.00003849900000","MEAN_MOTION_DDOT":"0.0000000000000","MEAN_MOTION_DOT":"0.00000292","TIME_SYSTEM":"UTC","INCLINATION":"53.0575","FILE":"3450137","OBJECT_NAME":"STARLINK-2528","GP_ID":"203783590","CLASSIFICATION_TYPE":"U","APOAPSIS":"548.367","CENTER_NAME":"EARTH","MEAN_MOTION":"15.06382846","MEAN_ANOMALY":"286.7057","PERIAPSIS":"546.166","SEMIMAJOR_AXIS":"6925.401","RA_OF_ASC_NODE":"221.4939","OBJECT_TYPE":"PAYLOAD","TLE_LINE2":"2 48307  53.0575 221.4939 0001589  73.4106 286.7057 15.06382846 58330","REV_AT_EPOCH":"5833","REF_FRAME":"TEME","EPHEMERIS_TYPE":"0","ARG_OF_PERICENTER":"73.4106","SITE":"AFETR","TLE_LINE1":"1 48307U 21036AH  22137.48099193  .00000292  00000-0  38499-4 0  9992","DECAY_DATE":null,"EPOCH":"2022-05-17T11:32:37.702752"}];
